{"type":"FeatureCollection","features":[{"type":"Feature","geometry":{"type":"Point","coordinates":[-2.228394,40.639347]},"properties":{"Name":"Hispania Terraconensis"}},{"type":"Feature","geometry":{"type":"Point","coordinates":[-7.574601,39.957807]},"properties":{"Name":"Lusitania"}},{"type":"Feature","geometry":{"type":"Point","coordinates":[-5.024913,37.606038]},"properties":{"Name":"Hispania Baetica"}},{"type":"Feature","geometry":{"type":"Point","coordinates":[-4.70444,34.632618]},"properties":{"Name":"Mauretania Tingitana"}},{"type":"Feature","geometry":{"type":"Point","coordinates":[1.44659,34.73912]},"properties":{"Name":"Mauretania Caesariensis"}},{"type":"Feature","geometry":{"type":"Point","coordinates":[0.802664,45.424792]},"properties":{"Name":"Gallia Aquitania"}},{"type":"Feature","geometry":{"type":"Point","coordinates":[3.731284,43.874028]},"properties":{"Name":"Gallia Narbonensis"}},{"type":"Feature","geometry":{"type":"Point","coordinates":[6.885081,45.690652]},"properties":{"Name":"Alpes Poeniae"}},{"type":"Feature","geometry":{"type":"Point","coordinates":[6.873286,44.816825]},"properties":{"Name":"Alpes Cottiae"}},{"type":"Feature","geometry":{"type":"Point","coordinates":[7.118512,44.180987]},"properties":{"Name":"Alpes Maritimae"}},{"type":"Feature","geometry":{"type":"Point","coordinates":[6.964005,34.846874]},"properties":{"Name":"Numidia"}},{"type":"Feature","geometry":{"type":"Point","coordinates":[0.475591,48.27803]},"properties":{"Name":"Gallia Lugdunensis"}},{"type":"Feature","geometry":{"type":"Point","coordinates":[4.073244,49.507185]},"properties":{"Name":"Gallia Belgica"}},{"type":"Feature","geometry":{"type":"Point","coordinates":[-1.371816,52.069742]},"properties":{"Name":"Britannia Superior et Britannia Inferior"}},{"type":"Feature","geometry":{"type":"Point","coordinates":[5.555054,50.849778]},"properties":{"Name":"Germania Inferior"}},{"type":"Feature","geometry":{"type":"Point","coordinates":[7.269706,47.51258]},"properties":{"Name":"Germania Superior"}},{"type":"Feature","geometry":{"type":"Point","coordinates":[10.782699,48.16375]},"properties":{"Name":"Raetia"}},{"type":"Feature","geometry":{"type":"Point","coordinates":[12.341583,42.865635]},"properties":{"Name":"Italia"}},{"type":"Feature","geometry":{"type":"Point","coordinates":[9.035027,42.145962]},"properties":{"Name":"Corsica"}},{"type":"Feature","geometry":{"type":"Point","coordinates":[9.010534,40.019018]},"properties":{"Name":"Sardinia"}},{"type":"Feature","geometry":{"type":"Point","coordinates":[13.458432,31.871762]},"properties":{"Name":"Africa Proconsularis"}},{"type":"Feature","geometry":{"type":"Point","coordinates":[20.932751,30.12404]},"properties":{"Name":"Creta et Cyrenaica"}},{"type":"Feature","geometry":{"type":"Point","coordinates":[28.981143,29.693924]},"properties":{"Name":"Aegyptus"}},{"type":"Feature","geometry":{"type":"Point","coordinates":[33.939979,29.877532]},"properties":{"Name":"Arabia"}},{"type":"Feature","geometry":{"type":"Point","coordinates":[35.169476,31.932676]},"properties":{"Name":"Syria Palaestina"}},{"type":"Feature","geometry":{"type":"Point","coordinates":[36.367038,33.896673]},"properties":{"Name":"Syria Phoenicia"}},{"type":"Feature","geometry":{"type":"Point","coordinates":[37.886881,35.266536]},"properties":{"Name":"Syria Coele"}},{"type":"Feature","geometry":{"type":"Point","coordinates":[39.580497,36.602323]},"properties":{"Name":"Osrhoena"}},{"type":"Feature","geometry":{"type":"Point","coordinates":[41.978391,36.23101]},"properties":{"Name":"Mesopotamia"}},{"type":"Feature","geometry":{"type":"Point","coordinates":[23.368902,38.184991]},"properties":{"Name":"Achaea"}},{"type":"Feature","geometry":{"type":"Point","coordinates":[20.664437,39.409113]},"properties":{"Name":"Epirus"}},{"type":"Feature","geometry":{"type":"Point","coordinates":[21.738321,41.010334]},"properties":{"Name":"Macedonia"}},{"type":"Feature","geometry":{"type":"Point","coordinates":[14.026269,47.5895]},"properties":{"Name":"Noricum"}},{"type":"Feature","geometry":{"type":"Point","coordinates":[16.422654,45.750941]},"properties":{"Name":"Pannonia Superior"}},{"type":"Feature","geometry":{"type":"Point","coordinates":[17.805064,43.564428]},"properties":{"Name":"Dalmatia"}},{"type":"Feature","geometry":{"type":"Point","coordinates":[18.960567,44.949383]},"properties":{"Name":"Pannonia Inferior"}},{"type":"Feature","geometry":{"type":"Point","coordinates":[21.432019,43.161415]},"properties":{"Name":"Moesia Superior"}},{"type":"Feature","geometry":{"type":"Point","coordinates":[23.425465,45.719478]},"properties":{"Name":"Dacia"}},{"type":"Feature","geometry":{"type":"Point","coordinates":[25.752601,41.504743]},"properties":{"Name":"Thracia"}},{"type":"Feature","geometry":{"type":"Point","coordinates":[26.128863,43.426518]},"properties":{"Name":"Moesia Inferior"}},{"type":"Feature","geometry":{"type":"Point","coordinates":[30.688103,37.22012]},"properties":{"Name":"Lycia et Pamphylia"}},{"type":"Feature","geometry":{"type":"Point","coordinates":[28.519424,38.601039]},"properties":{"Name":"Asia"}},{"type":"Feature","geometry":{"type":"Point","coordinates":[31.743436,40.857208]},"properties":{"Name":"Bithynia et Pontus"}},{"type":"Feature","geometry":{"type":"Point","coordinates":[35.385817,39.22478]},"properties":{"Name":"Galatia et Cappadocia"}},{"type":"Feature","geometry":{"type":"Point","coordinates":[33.570888,36.76019]},"properties":{"Name":"Cilicia"}},{"type":"Feature","geometry":{"type":"Point","coordinates":[33.210428,35.038797]},"properties":{"Name":"Cyprus"}},{"type":"Feature","geometry":{"type":"Point","coordinates":[14.257528,37.567614]},"properties":{"Name":"Sicilia"}}]}